ONEWEB-0230             
1 48769U 21045C   23286.90492596  .00000096  00000+0  21990-3 0  9999
2 48769  87.8944  93.8260 0001723  88.5448 271.5880 13.15553422116172
ONEWEB-0237             
1 48770U 21045D   23286.89434665 -.00000031  00000+0 -11618-3 0  9999
2 48770  87.8946  93.7467 0001976  75.3545 284.7804 13.15545171115898
ONEWEB-0235             
1 48771U 21045E   23286.86690255 -.00000023  00000+0 -96325-4 0  9996
2 48771  87.8941  93.7811 0002254  69.4454 290.6918 13.15546684115881
ONEWEB-0242             
1 48772U 21045F   23286.93662715  .00000147  00000+0  35664-3 0  9998
2 48772  87.8938  93.7577 0001878  83.6299 276.5045 13.15548851115931
ONEWEB-0241             
1 48773U 21045G   23286.92393727  .00000169  00000+0  41461-3 0  9998
2 48773  87.8947  93.7839 0001439  71.4601 288.6685 13.15550513115840
ONEWEB-0243             
1 48774U 21045H   23286.87957981 -.00000099  00000+0 -29616-3 0  9993
2 48774  87.8948  93.7496 0002091  77.8864 282.2500 13.15547949115864
ONEWEB-0222             
1 48775U 21045J   23286.86899699 -.00000095  00000+0 -28513-3 0  9995
2 48775  87.8938  93.7851 0001630  76.9772 283.1540 13.15545392115904
ONEWEB-0244             
1 48776U 21045K   23286.89014168 -.00000104  00000+0 -31136-3 0  9995
2 48776  87.8936  93.7648 0001865  86.9300 273.2044 13.15545822116475
