<?xml version="1.0" encoding="UTF-8"?>
<ndm xmlns:xsi="http://www.w3.org/2001/XMLSchema-instance" xsi:noNamespaceSchemaLocation="https://sanaregistry.org/r/ndmxml_unqualified/ndmxml-2.0.0-master-2.0.xsd">
<omm id="CCSDS_OMM_VERS" version="2.0">
<header><CREATION_DATE/><ORIGINATOR/></header><body><segment><metadata><OBJECT_NAME>ONEWEB-0230</OBJECT_NAME><OBJECT_ID>2021-045C</OBJECT_ID><CENTER_NAME>EARTH</CENTER_NAME><REF_FRAME>TEME</REF_FRAME><TIME_SYSTEM>UTC</TIME_SYSTEM><MEAN_ELEMENT_THEORY>SGP4</MEAN_ELEMENT_THEORY></metadata><data><meanElements><EPOCH>2023-10-13T21:43:05.602944</EPOCH><MEAN_MOTION>13.15553422</MEAN_MOTION><ECCENTRICITY>.0001723</ECCENTRICITY><INCLINATION>87.8944</INCLINATION><RA_OF_ASC_NODE>93.8260</RA_OF_ASC_NODE><ARG_OF_PERICENTER>88.5448</ARG_OF_PERICENTER><MEAN_ANOMALY>271.5880</MEAN_ANOMALY></meanElements><tleParameters><EPHEMERIS_TYPE>0</EPHEMERIS_TYPE><CLASSIFICATION_TYPE>U</CLASSIFICATION_TYPE><NORAD_CAT_ID>48769</NORAD_CAT_ID><ELEMENT_SET_NO>999</ELEMENT_SET_NO><REV_AT_EPOCH>11617</REV_AT_EPOCH><BSTAR>.2199E-3</BSTAR><MEAN_MOTION_DOT>.96E-6</MEAN_MOTION_DOT><MEAN_MOTION_DDOT>0</MEAN_MOTION_DDOT></tleParameters></data></segment></body></omm>
<omm id="CCSDS_OMM_VERS" version="2.0">
<header><CREATION_DATE/><ORIGINATOR/></header><body><segment><metadata><OBJECT_NAME>ONEWEB-0237</OBJECT_NAME><OBJECT_ID>2021-045D</OBJECT_ID><CENTER_NAME>EARTH</CENTER_NAME><REF_FRAME>TEME</REF_FRAME><TIME_SYSTEM>UTC</TIME_SYSTEM><MEAN_ELEMENT_THEORY>SGP4</MEAN_ELEMENT_THEORY></metadata><data><meanElements><EPOCH>2023-10-13T21:27:51.550560</EPOCH><MEAN_MOTION>13.15545171</MEAN_MOTION><ECCENTRICITY>.0001976</ECCENTRICITY><INCLINATION>87.8946</INCLINATION><RA_OF_ASC_NODE>93.7467</RA_OF_ASC_NODE><ARG_OF_PERICENTER>75.3545</ARG_OF_PERICENTER><MEAN_ANOMALY>284.7804</MEAN_ANOMALY></meanElements><tleParameters><EPHEMERIS_TYPE>0</EPHEMERIS_TYPE><CLASSIFICATION_TYPE>U</CLASSIFICATION_TYPE><NORAD_CAT_ID>48770</NORAD_CAT_ID><ELEMENT_SET_NO>999</ELEMENT_SET_NO><REV_AT_EPOCH>11589</REV_AT_EPOCH><BSTAR>-.11618E-3</BSTAR><MEAN_MOTION_DOT>-.31E-6</MEAN_MOTION_DOT><MEAN_MOTION_DDOT>0</MEAN_MOTION_DDOT></tleParameters></data></segment></body></omm>
<omm id="CCSDS_OMM_VERS" version="2.0">
<header><CREATION_DATE/><ORIGINATOR/></header><body><segment><metadata><OBJECT_NAME>ONEWEB-0235</OBJECT_NAME><OBJECT_ID>2021-045E</OBJECT_ID><CENTER_NAME>EARTH</CENTER_NAME><REF_FRAME>TEME</REF_FRAME><TIME_SYSTEM>UTC</TIME_SYSTEM><MEAN_ELEMENT_THEORY>SGP4</MEAN_ELEMENT_THEORY></metadata><data><meanElements><EPOCH>2023-10-13T20:48:20.380320</EPOCH><MEAN_MOTION>13.15546684</MEAN_MOTION><ECCENTRICITY>.0002254</ECCENTRICITY><INCLINATION>87.8941</INCLINATION><RA_OF_ASC_NODE>93.7811</RA_OF_ASC_NODE><ARG_OF_PERICENTER>69.4454</ARG_OF_PERICENTER><MEAN_ANOMALY>290.6918</MEAN_ANOMALY></meanElements><tleParameters><EPHEMERIS_TYPE>0</EPHEMERIS_TYPE><CLASSIFICATION_TYPE>U</CLASSIFICATION_TYPE><NORAD_CAT_ID>48771</NORAD_CAT_ID><ELEMENT_SET_NO>999</ELEMENT_SET_NO><REV_AT_EPOCH>11588</REV_AT_EPOCH><BSTAR>-.96325E-4</BSTAR><MEAN_MOTION_DOT>-.23E-6</MEAN_MOTION_DOT><MEAN_MOTION_DDOT>0</MEAN_MOTION_DDOT></tleParameters></data></segment></body></omm>
<omm id="CCSDS_OMM_VERS" version="2.0">
<header><CREATION_DATE/><ORIGINATOR/></header><body><segment><metadata><OBJECT_NAME>ONEWEB-0242</OBJECT_NAME><OBJECT_ID>2021-045F</OBJECT_ID><CENTER_NAME>EARTH</CENTER_NAME><REF_FRAME>TEME</REF_FRAME><TIME_SYSTEM>UTC</TIME_SYSTEM><MEAN_ELEMENT_THEORY>SGP4</MEAN_ELEMENT_THEORY></metadata><data><meanElements><EPOCH>2023-10-13T22:28:44.585760</EPOCH><MEAN_MOTION>13.15548851</MEAN_MOTION><ECCENTRICITY>.0001878</ECCENTRICITY><INCLINATION>87.8938</INCLINATION><RA_OF_ASC_NODE>93.7577</RA_OF_ASC_NODE><ARG_OF_PERICENTER>83.6299</ARG_OF_PERICENTER><MEAN_ANOMALY>276.5045</MEAN_ANOMALY></meanElements><tleParameters><EPHEMERIS_TYPE>0</EPHEMERIS_TYPE><CLASSIFICATION_TYPE>U</CLASSIFICATION_TYPE><NORAD_CAT_ID>48772</NORAD_CAT_ID><ELEMENT_SET_NO>999</ELEMENT_SET_NO><REV_AT_EPOCH>11593</REV_AT_EPOCH><BSTAR>.35664E-3</BSTAR><MEAN_MOTION_DOT>.147E-5</MEAN_MOTION_DOT><MEAN_MOTION_DDOT>0</MEAN_MOTION_DDOT></tleParameters></data></segment></body></omm>
<omm id="CCSDS_OMM_VERS" version="2.0">
<header><CREATION_DATE/><ORIGINATOR/></header><body><segment><metadata><OBJECT_NAME>ONEWEB-0241</OBJECT_NAME><OBJECT_ID>2021-045G</OBJECT_ID><CENTER_NAME>EARTH</CENTER_NAME><REF_FRAME>TEME</REF_FRAME><TIME_SYSTEM>UTC</TIME_SYSTEM><MEAN_ELEMENT_THEORY>SGP4</MEAN_ELEMENT_THEORY></metadata><data><meanElements><EPOCH>2023-10-13T22:10:28.180128</EPOCH><MEAN_MOTION>13.15550513</MEAN_MOTION><ECCENTRICITY>.0001439</ECCENTRICITY><INCLINATION>87.8947</INCLINATION><RA_OF_ASC_NODE>93.7839</RA_OF_ASC_NODE><ARG_OF_PERICENTER>71.4601</ARG_OF_PERICENTER><MEAN_ANOMALY>288.6685</MEAN_ANOMALY></meanElements><tleParameters><EPHEMERIS_TYPE>0</EPHEMERIS_TYPE><CLASSIFICATION_TYPE>U</CLASSIFICATION_TYPE><NORAD_CAT_ID>48773</NORAD_CAT_ID><ELEMENT_SET_NO>999</ELEMENT_SET_NO><REV_AT_EPOCH>11584</REV_AT_EPOCH><BSTAR>.41461E-3</BSTAR><MEAN_MOTION_DOT>.169E-5</MEAN_MOTION_DOT><MEAN_MOTION_DDOT>0</MEAN_MOTION_DDOT></tleParameters></data></segment></body></omm>
<omm id="CCSDS_OMM_VERS" version="2.0">
<header><CREATION_DATE/><ORIGINATOR/></header><body><segment><metadata><OBJECT_NAME>ONEWEB-0243</OBJECT_NAME><OBJECT_ID>2021-045H</OBJECT_ID><CENTER_NAME>EARTH</CENTER_NAME><REF_FRAME>TEME</REF_FRAME><TIME_SYSTEM>UTC</TIME_SYSTEM><MEAN_ELEMENT_THEORY>SGP4</MEAN_ELEMENT_THEORY></metadata><data><meanElements><EPOCH>2023-10-13T21:06:35.695584</EPOCH><MEAN_MOTION>13.15547949</MEAN_MOTION><ECCENTRICITY>.0002091</ECCENTRICITY><INCLINATION>87.8948</INCLINATION><RA_OF_ASC_NODE>93.7496</RA_OF_ASC_NODE><ARG_OF_PERICENTER>77.8864</ARG_OF_PERICENTER><MEAN_ANOMALY>282.2500</MEAN_ANOMALY></meanElements><tleParameters><EPHEMERIS_TYPE>0</EPHEMERIS_TYPE><CLASSIFICATION_TYPE>U</CLASSIFICATION_TYPE><NORAD_CAT_ID>48774</NORAD_CAT_ID><ELEMENT_SET_NO>999</ELEMENT_SET_NO><REV_AT_EPOCH>11586</REV_AT_EPOCH><BSTAR>-.29616E-3</BSTAR><MEAN_MOTION_DOT>-.99E-6</MEAN_MOTION_DOT><MEAN_MOTION_DDOT>0</MEAN_MOTION_DDOT></tleParameters></data></segment></body></omm>
<omm id="CCSDS_OMM_VERS" version="2.0">
<header><CREATION_DATE/><ORIGINATOR/></header><body><segment><metadata><OBJECT_NAME>ONEWEB-0222</OBJECT_NAME><OBJECT_ID>2021-045J</OBJECT_ID><CENTER_NAME>EARTH</CENTER_NAME><REF_FRAME>TEME</REF_FRAME><TIME_SYSTEM>UTC</TIME_SYSTEM><MEAN_ELEMENT_THEORY>SGP4</MEAN_ELEMENT_THEORY></metadata><data><meanElements><EPOCH>2023-10-13T20:51:21.339936</EPOCH><MEAN_MOTION>13.15545392</MEAN_MOTION><ECCENTRICITY>.000163</ECCENTRICITY><INCLINATION>87.8938</INCLINATION><RA_OF_ASC_NODE>93.7851</RA_OF_ASC_NODE><ARG_OF_PERICENTER>76.9772</ARG_OF_PERICENTER><MEAN_ANOMALY>283.1540</MEAN_ANOMALY></meanElements><tleParameters><EPHEMERIS_TYPE>0</EPHEMERIS_TYPE><CLASSIFICATION_TYPE>U</CLASSIFICATION_TYPE><NORAD_CAT_ID>48775</NORAD_CAT_ID><ELEMENT_SET_NO>999</ELEMENT_SET_NO><REV_AT_EPOCH>11590</REV_AT_EPOCH><BSTAR>-.28513E-3</BSTAR><MEAN_MOTION_DOT>-.95E-6</MEAN_MOTION_DOT><MEAN_MOTION_DDOT>0</MEAN_MOTION_DDOT></tleParameters></data></segment></body></omm>
<omm id="CCSDS_OMM_VERS" version="2.0">
<header><CREATION_DATE/><ORIGINATOR/></header><body><segment><metadata><OBJECT_NAME>ONEWEB-0244</OBJECT_NAME><OBJECT_ID>2021-045K</OBJECT_ID><CENTER_NAME>EARTH</CENTER_NAME><REF_FRAME>TEME</REF_FRAME><TIME_SYSTEM>UTC</TIME_SYSTEM><MEAN_ELEMENT_THEORY>SGP4</MEAN_ELEMENT_THEORY></metadata><data><meanElements><EPOCH>2023-10-13T21:21:48.241152</EPOCH><MEAN_MOTION>13.15545822</MEAN_MOTION><ECCENTRICITY>.0001865</ECCENTRICITY><INCLINATION>87.8936</INCLINATION><RA_OF_ASC_NODE>93.7648</RA_OF_ASC_NODE><ARG_OF_PERICENTER>86.9300</ARG_OF_PERICENTER><MEAN_ANOMALY>273.2044</MEAN_ANOMALY></meanElements><tleParameters><EPHEMERIS_TYPE>0</EPHEMERIS_TYPE><CLASSIFICATION_TYPE>U</CLASSIFICATION_TYPE><NORAD_CAT_ID>48776</NORAD_CAT_ID><ELEMENT_SET_NO>999</ELEMENT_SET_NO><REV_AT_EPOCH>11647</REV_AT_EPOCH><BSTAR>-.31136E-3</BSTAR><MEAN_MOTION_DOT>-.104E-5</MEAN_MOTION_DOT><MEAN_MOTION_DDOT>0</MEAN_MOTION_DDOT></tleParameters></data></segment></body></omm>

</ndm>
